{
  "links" : {
    "next" : "https://api.nasa.gov/neo/rest/v1/neo/browse?page=35&size=20&api_key=jqAGvNAwUIBu4fl9FSOjdm3V4F7hIglRzI6pdX9d",
    "prev" : "https://api.nasa.gov/neo/rest/v1/neo/browse?page=33&size=20&api_key=jqAGvNAwUIBu4fl9FSOjdm3V4F7hIglRzI6pdX9d",
    "self" : "https://api.nasa.gov/neo/rest/v1/neo/browse?page=34&size=20&api_key=jqAGvNAwUIBu4fl9FSOjdm3V4F7hIglRzI6pdX9d"
  },
  "page" : {
    "size" : 20,
    "total_elements" : 20750,
    "total_pages" : 1038,
    "number" : 34
  },
  "near_earth_objects" : [ {
    "links" : {
      "self" : "https://api.nasa.gov/neo/rest/v1/neo/3388313?api_key=jqAGvNAwUIBu4fl9FSOjdm3V4F7hIglRzI6pdX9d"
    },
    "neo_reference_id" : "3388313",
    "name" : "(2007 TS24)",
    "designation" : "2007 TS24",
    "nasa_jpl_url" : "http://ssd.jpl.nasa.gov/sbdb.cgi?sstr=3388313",
    "absolute_magnitude_h" : 23.3,
    "estimated_diameter" : {
      "kilometers" : {
        "estimated_diameter_min" : 0.058150704,
        "estimated_diameter_max" : 0.130028927
      },
      "meters" : {
        "estimated_diameter_min" : 58.1507039646,
        "estimated_diameter_max" : 130.0289270043
      },
      "miles" : {
        "estimated_diameter_min" : 0.0361331611,
        "estimated_diameter_max" : 0.0807962044
      },
      "feet" : {
        "estimated_diameter_min" : 190.7831555951,
        "estimated_diameter_max" : 426.6041048727
      }
    },
    "is_potentially_hazardous_asteroid" : false,
    "close_approach_data" : [ {
      "close_approach_date" : "2007-10-19",
      "epoch_date_close_approach" : 1192777200000,
      "relative_velocity" : {
        "kilometers_per_second" : "10.6798988325",
        "kilometers_per_hour" : "38447.6357970169",
        "miles_per_hour" : "23889.8656984298"
      },
      "miss_distance" : {
        "astronomical" : "0.0317309728",
        "lunar" : "12.3433485031",
        "kilometers" : "4746886",
        "miles" : "2949578.25"
      },
      "orbiting_body" : "Earth"
    }, {
      "close_approach_date" : "2102-09-29",
      "epoch_date_close_approach" : 4188956400000,
      "relative_velocity" : {
        "kilometers_per_second" : "17.4908915984",
        "kilometers_per_hour" : "62967.2097542929",
        "miles_per_hour" : "39125.3754164938"
      },
      "miss_distance" : {
        "astronomical" : "0.2719325909",
        "lunar" : "105.7817840576",
        "kilometers" : "40680540",
        "miles" : "25277714"
      },
      "orbiting_body" : "Earth"
    }, {
      "close_approach_date" : "2197-12-25",
      "epoch_date_close_approach" : 7194470400000,
      "relative_velocity" : {
        "kilometers_per_second" : "12.6761413497",
        "kilometers_per_hour" : "45634.1088589632",
        "miles_per_hour" : "28355.2605851708"
      },
      "miss_distance" : {
        "astronomical" : "0.1244804842",
        "lunar" : "48.422908783",
        "kilometers" : "18622016",
        "miles" : "11571184"
      },
      "orbiting_body" : "Earth"
    } ],
    "orbital_data" : {
      "orbit_id" : "12",
      "orbit_determination_date" : "2017-04-06 09:05:44",
      "first_observation_date" : "2007-09-17",
      "last_observation_date" : "2007-10-16",
      "data_arc_in_days" : 29,
      "observations_used" : 74,
      "orbit_uncertainty" : "7",
      "minimum_orbit_intersection" : ".0225679",
      "jupiter_tisserand_invariant" : "2.957",
      "epoch_osculation" : "2458600.5",
      "eccentricity" : ".6523844132538041",
      "semi_major_axis" : "2.818747852966869",
      "inclination" : "5.381090244009834",
      "ascending_node_longitude" : "22.22803786227919",
      "orbital_period" : "1728.553275846759",
      "perihelion_distance" : ".979840688798658",
      "perihelion_argument" : "32.59081748218957",
      "aphelion_distance" : "4.65765501713508",
      "perihelion_time" : "2457857.132620403512",
      "mean_anomaly" : "154.8186338217673",
      "mean_motion" : ".208266649938023",
      "equinox" : "J2000",
      "orbit_class" : {
        "orbit_class_type" : "APO",
        "orbit_class_range" : "a (semi-major axis) > 1.0 AU; q (perihelion) < 1.017 AU",
        "orbit_class_description" : "Near-Earth asteroid orbits which cross the Earth’s orbit similar to that of 1862 Apollo"
      }
    },
    "is_sentry_object" : false
  }, {
    "links" : {
      "self" : "https://api.nasa.gov/neo/rest/v1/neo/3388314?api_key=jqAGvNAwUIBu4fl9FSOjdm3V4F7hIglRzI6pdX9d"
    },
    "neo_reference_id" : "3388314",
    "name" : "(2007 TT24)",
    "designation" : "2007 TT24",
    "nasa_jpl_url" : "http://ssd.jpl.nasa.gov/sbdb.cgi?sstr=3388314",
    "absolute_magnitude_h" : 27.0,
    "estimated_diameter" : {
      "kilometers" : {
        "estimated_diameter_min" : 0.0105816886,
        "estimated_diameter_max" : 0.023661375
      },
      "meters" : {
        "estimated_diameter_min" : 10.5816885933,
        "estimated_diameter_max" : 23.6613750114
      },
      "miles" : {
        "estimated_diameter_min" : 0.0065751544,
        "estimated_diameter_max" : 0.0147024923
      },
      "feet" : {
        "estimated_diameter_min" : 34.7168272045,
        "estimated_diameter_max" : 77.6291855923
      }
    },
    "is_potentially_hazardous_asteroid" : false,
    "close_approach_data" : [ {
      "close_approach_date" : "2007-10-18",
      "epoch_date_close_approach" : 1192690800000,
      "relative_velocity" : {
        "kilometers_per_second" : "3.2883235685",
        "kilometers_per_hour" : "11837.9648464586",
        "miles_per_hour" : "7355.6509902898"
      },
      "miss_distance" : {
        "astronomical" : "0.0415864855",
        "lunar" : "16.1771430969",
        "kilometers" : "6221249.5",
        "miles" : "3865705.25"
      },
      "orbiting_body" : "Earth"
    } ],
    "orbital_data" : {
      "orbit_id" : "6",
      "orbit_determination_date" : "2017-04-06 09:05:44",
      "first_observation_date" : "2007-10-11",
      "last_observation_date" : "2007-10-12",
      "data_arc_in_days" : 1,
      "observations_used" : 11,
      "orbit_uncertainty" : "9",
      "minimum_orbit_intersection" : ".040215",
      "jupiter_tisserand_invariant" : "4.624",
      "epoch_osculation" : "2454385.5",
      "eccentricity" : ".2799384806979961",
      "semi_major_axis" : "1.439736866871526",
      "inclination" : ".8172479644679913",
      "ascending_node_longitude" : "6.103754029847732",
      "orbital_period" : "630.9909280686367",
      "perihelion_distance" : "1.036699115754618",
      "perihelion_argument" : "19.62902734255442",
      "aphelion_distance" : "1.842774617988434",
      "perihelion_time" : "2454393.515595747908",
      "mean_anomaly" : "355.4268526837948",
      "mean_motion" : ".5705311819646964",
      "equinox" : "J2000",
      "orbit_class" : {
        "orbit_class_type" : "AMO",
        "orbit_class_range" : "1.017 AU < q (perihelion) < 1.3 AU",
        "orbit_class_description" : "Near-Earth asteroid orbits similar to that of 1221 Amor"
      }
    },
    "is_sentry_object" : false
  }, {
    "links" : {
      "self" : "https://api.nasa.gov/neo/rest/v1/neo/3388318?api_key=jqAGvNAwUIBu4fl9FSOjdm3V4F7hIglRzI6pdX9d"
    },
    "neo_reference_id" : "3388318",
    "name" : "(2007 TX24)",
    "designation" : "2007 TX24",
    "nasa_jpl_url" : "http://ssd.jpl.nasa.gov/sbdb.cgi?sstr=3388318",
    "absolute_magnitude_h" : 24.9,
    "estimated_diameter" : {
      "kilometers" : {
        "estimated_diameter_min" : 0.0278326768,
        "estimated_diameter_max" : 0.0622357573
      },
      "meters" : {
        "estimated_diameter_min" : 27.8326768072,
        "estimated_diameter_max" : 62.2357573367
      },
      "miles" : {
        "estimated_diameter_min" : 0.0172944182,
        "estimated_diameter_max" : 0.0386714948
      },
      "feet" : {
        "estimated_diameter_min" : 91.3145593761,
        "estimated_diameter_max" : 204.1855621004
      }
    },
    "is_potentially_hazardous_asteroid" : false,
    "close_approach_data" : [ {
      "close_approach_date" : "2007-10-06",
      "epoch_date_close_approach" : 1191654000000,
      "relative_velocity" : {
        "kilometers_per_second" : "7.4959792304",
        "kilometers_per_hour" : "26985.525229448",
        "miles_per_hour" : "16767.7559404867"
      },
      "miss_distance" : {
        "astronomical" : "0.0784457405",
        "lunar" : "30.5153923035",
        "kilometers" : "11735316",
        "miles" : "7291987"
      },
      "orbiting_body" : "Earth"
    } ],
    "orbital_data" : {
      "orbit_id" : "11",
      "orbit_determination_date" : "2017-04-06 09:05:43",
      "first_observation_date" : "2007-10-11",
      "last_observation_date" : "2007-11-10",
      "data_arc_in_days" : 30,
      "observations_used" : 36,
      "orbit_uncertainty" : "7",
      "minimum_orbit_intersection" : ".0720954",
      "jupiter_tisserand_invariant" : "3.363",
      "epoch_osculation" : "2458600.5",
      "eccentricity" : ".5377338403755425",
      "semi_major_axis" : "2.312206228561885",
      "inclination" : "8.213540790958914",
      "ascending_node_longitude" : "200.0989224316792",
      "orbital_period" : "1284.216592916763",
      "perihelion_distance" : "1.068854693537053",
      "perihelion_argument" : "169.3044692773993",
      "aphelion_distance" : "3.555557763586717",
      "perihelion_time" : "2458236.585582513529",
      "mean_anomaly" : "102.0148711811738",
      "mean_motion" : ".2803265445919477",
      "equinox" : "J2000",
      "orbit_class" : {
        "orbit_class_type" : "AMO",
        "orbit_class_range" : "1.017 AU < q (perihelion) < 1.3 AU",
        "orbit_class_description" : "Near-Earth asteroid orbits similar to that of 1221 Amor"
      }
    },
    "is_sentry_object" : false
  } ]
}